[{"OBJECT_NAME":"STARLINK-34388","OBJECT_ID":"2025-123D","EPOCH":"2026-03-09T17:54:45.198144","MEAN_MOTION":14.9832904,"ECCENTRICITY":0.00032892,"INCLINATION":70.0023,"RA_OF_ASC_NODE":194.4439,"ARG_OF_PERICENTER":266.0952,"MEAN_ANOMALY":93.9832,"EPHEMERIS_TYPE":0,"CLASSIFICATION_TYPE":"U","NORAD_CAT_ID":64294,"ELEMENT_SET_NO":999,"REV_AT_EPOCH":4284,"BSTAR":0.00020458474,"MEAN_MOTION_DOT":2.349e-5,"MEAN_MOTION_DDOT":0},{"OBJECT_NAME":"NOAA 16 DEB","OBJECT_ID":"2000-055HK","EPOCH":"2026-03-09T11:22:55.184448","MEAN_MOTION":14.96713123,"ECCENTRICITY":0.00044813,"INCLINATION":98.9091,"RA_OF_ASC_NODE":257.3123,"ARG_OF_PERICENTER":226.904,"MEAN_ANOMALY":133.1803,"EPHEMERIS_TYPE":0,"CLASSIFICATION_TYPE":"U","NORAD_CAT_ID":41307,"ELEMENT_SET_NO":999,"REV_AT_EPOCH":53055,"BSTAR":0.0073865996,"MEAN_MOTION_DOT":0.00085329,"MEAN_MOTION_DDOT":0}]
